OBJECT_NAME,OBJECT_ID,EPOCH,MEAN_MOTION,ECCENTRICITY,INCLINATION,RA_OF_ASC_NODE,ARG_OF_PERICENTER,MEAN_ANOMALY,EPHEMERIS_TYPE,CLASSIFICATION_TYPE,NORAD_CAT_ID,ELEMENT_SET_NO,REV_AT_EPOCH,BSTAR,MEAN_MOTION_DOT,MEAN_MOTION_DDOT
IONOSFERA-M 2,2024-199B,2026-06-09T20:15:11.146464,14.22756160,.0001336,98.7182,34.0040,45.5336,314.5951,0,U,61736,999,12978,.39152663E-4,.44E-6,0
PRSC-EO1,2025-012A,2026-06-09T22:32:24.554112,15.17677862,.00041795,97.4227,233.5404,285.0784,74.9987,0,U,62725,999,7709,.32787632E-3,.6541E-4,0
BIOMASS,2025-090A,2026-06-09T19:20:53.481120,14.67532891,.00013644,98.0742,348.2302,90.7794,269.3567,0,U,63772,999,5960,.1286662E-3,.682E-5,0
GOSAT-GW (IBUKI GW),2025-141A,2026-06-09T23:06:35.752320,14.67553301,.00014367,98.0569,98.3975,84.8320,275.3048,0,U,64694,999,5078,.11981734E-3,.632E-5,0
IONOSFERA-M 3,2025-155A,2026-06-09T22:12:33.568128,14.21485247,.00005593,98.6022,123.0133,171.8493,188.2693,0,U,64876,999,4537,.38541953E-4,.41E-6,0
IONOSFERA-M 4,2025-155B,2026-06-09T23:02:44.877696,14.21487441,.00007939,98.6020,122.9648,118.2545,241.8713,0,U,64877,999,4537,.39207393E-4,.43E-6,0
MICROCARB,2025-156A,2026-06-09T17:48:29.594016,14.72317975,.00150946,97.9831,238.0121,298.2728,61.6956,0,U,64899,999,4687,.7794247E-4,.444E-5,0
CO3D 3,2025-156B,2026-06-09T16:24:43.490880,15.20200895,.00011438,97.4327,239.4848,136.4582,223.6743,0,U,64900,999,4839,.20378673E-3,.4346E-4,0
CO3D 4,2025-156C,2026-06-08T23:02:18.632832,15.20199351,.0000729,97.4332,238.7713,27.5039,332.6234,0,U,64901,999,4828,.16169789E-4,.283E-5,0
CO3D 2,2025-156D,2026-06-09T18:46:29.882784,15.20202825,.00013952,97.4329,239.4808,112.3030,247.8353,0,U,64902,999,4840,.62685969E-3,.13528E-3,0
CO3D 1,2025-156E,2026-06-09T18:46:42.685536,15.20203727,.00012085,97.4327,239.4811,116.0675,244.0685,0,U,64903,999,4840,.19587477E-3,.4175E-4,0
PRSC-S1,2025-164A,2026-06-09T21:42:56.416032,15.06390911,.00074785,41.1314,328.8246,300.6866,59.3210,0,U,65055,999,4733,.31294562E-3,.4518E-4,0
SENTINEL-6B,2025-264A,2026-06-09T16:02:48.597792,12.80929835,.00080463,66.0386,150.7946,269.2533,90.7561,0,U,66514,999,2620,.14895396E-3,-.27E-6,0
CAS500-3,2025-274F,2026-06-09T18:03:38.777760,14.88303166,.00063668,97.7447,88.9729,129.7199,230.4580,0,U,66655,999,2904,.13184121E-3,.1165E-4,0
CSG-3,2026-001A,2026-06-09T12:04:03.566784,14.82148421,.00013079,97.8886,344.2160,92.0792,268.0571,0,U,67304,999,2332,.4448095E-4,.302E-5,0
PRSC-E03,2026-092A,2026-06-09T21:32:54.523392,15.06632965,.00049223,37.9996,132.6629,312.6362,47.3985,0,U,68835,999,685,.15351784E-3,.2211E-4,0
CAS500-2,2026-100AK,2026-06-09T17:10:54.254208,15.20502504,.0011276,97.4083,58.6994,57.7955,302.4372,0,U,69013,999,567,.29173232E-3,.6318E-4,0
