IONOSFERA-M 2           
1 61736U 24199B   26160.84387901  .00000044  00000+0  39153-4 0  9995
2 61736  98.7182  34.0040 0001336  45.5336 314.5951 14.22756160129789
PRSC-EO1                
1 62725U 25012A   26160.93917308  .00006541  00000+0  32788-3 0  9993
2 62725  97.4227 233.5404 0004179 285.0784  74.9987 15.17677862 77098
BIOMASS                 
1 63772U 25090A   26160.80617455  .00000682  00000+0  12867-3 0  9994
2 63772  98.0742 348.2302 0001364  90.7794 269.3567 14.67532891 59603
GOSAT-GW (IBUKI GW)     
1 64694U 25141A   26160.96291380  .00000632  00000+0  11982-3 0  9999
2 64694  98.0569  98.3975 0001436  84.8320 275.3048 14.67553301 50782
IONOSFERA-M 3           
1 64876U 25155A   26160.92538852  .00000041  00000+0  38542-4 0  9996
2 64876  98.6022 123.0133 0000559 171.8493 188.2693 14.21485247 45379
IONOSFERA-M 4           
1 64877U 25155B   26160.96024164  .00000043  00000+0  39207-4 0  9998
2 64877  98.6020 122.9648 0000793 118.2545 241.8713 14.21487441 45377
MICROCARB               
1 64899U 25156A   26160.74200919  .00000444  00000+0  77942-4 0  9996
2 64899  97.9831 238.0121 0015094 298.2728  61.6956 14.72317975 46873
CO3D 3                  
1 64900U 25156B   26160.68383670  .00004346  00000+0  20379-3 0  9994
2 64900  97.4327 239.4848 0001143 136.4582 223.6743 15.20200895 48392
CO3D 4                  
1 64901U 25156C   26159.95993788  .00000283  00000+0  16170-4 0  9991
2 64901  97.4332 238.7713 0000729  27.5039 332.6234 15.20199351 48286
CO3D 2                  
1 64902U 25156D   26160.78229031  .00013528  00000+0  62686-3 0  9996
2 64902  97.4329 239.4808 0001395 112.3030 247.8353 15.20202825 48404
CO3D 1                  
1 64903U 25156E   26160.78243849  .00004175  00000+0  19587-3 0  9990
2 64903  97.4327 239.4811 0001208 116.0675 244.0685 15.20203727 48405
PRSC-S1                 
1 65055U 25164A   26160.90481963  .00004518  00000+0  31295-3 0  9994
2 65055  41.1314 328.8246 0007478 300.6866  59.3210 15.06390911 47337
SENTINEL-6B             
1 66514U 25264A   26160.66861803 -.00000027  00000+0  14895-3 0  9993
2 66514  66.0386 150.7946 0008046 269.2533  90.7561 12.80929835 26208
CAS500-3                
1 66655U 25274F   26160.75253215  .00001165  00000+0  13184-3 0  9995
2 66655  97.7447  88.9729 0006366 129.7199 230.4580 14.88303166 29047
CSG-3                   
1 67304U 26001A   26160.50281906  .00000302  00000+0  44481-4 0  9994
2 67304  97.8886 344.2160 0001307  92.0792 268.0571 14.82148421 23322
PRSC-E03                
1 68835U 26092A   26160.89785328  .00002211  00000+0  15352-3 0  9998
2 68835  37.9996 132.6629 0004922 312.6362  47.3985 15.06632965  6852
CAS500-2                
1 69013U 26100AK  26160.71590572  .00006318  00000+0  29173-3 0  9991
2 69013  97.4083  58.6994 0011276  57.7955 302.4372 15.20502504  5671
